0 FENGYUN 1C DEB
1 31041U 99025BEK 13281.06567250  .00002723  00000-0  20107-2 0  9806
2 31041 099.0825 226.7608 0128499 343.2312 074.5258 13.92399428332230
0 FENGYUN 1C DEB
1 31041U 99025BEK 13283.07779172  .00002992  00000-0  22065-2 0  9811
2 31041 099.0823 228.7343 0128321 337.8261 080.5244 13.92414886332511
0 FENGYUN 1C DEB
1 31041U 99025BEK 13285.08943407  .00002501  00000-0  18500-2 0  9824
2 31041 099.0822 230.7075 0128128 332.3918 084.2624 13.92425473332796
0 FENGYUN 1C DEB
1 31041U 99025BEK 13287.10131140  .00002815  00000-0  20783-2 0  9837
2 31041 099.0826 232.6804 0127876 326.9848 089.2316 13.92434294333077
0 FENGYUN 1C DEB
1 31041U 99025BEK 13289.70056951  .00003352  00000-0  24682-2 0  9841
2 31041 099.0831 235.2295 0127479 320.0055 158.6880 13.92451261333430
0 FENGYUN 1C DEB
1 31041U 99025BEK 13292.05972458  .00003358  00000-0  24732-2 0  9855
2 31041 099.0838 237.5432 0127159 313.6578 104.7133 13.92464865333761
0 FENGYUN 1C DEB
1 31041U 99025BEK 13294.07133338  .00003888  00000-0  28581-2 0  9860
2 31041 099.0838 239.5159 0126972 308.2137 108.6791 13.92478052334040
